ONEWEB-0158             
1 48054U 21025N   24252.61013204  .00000284  00000+0  74316-3 0  9990
2 48054  87.8855  88.8738 0001547  80.0940 280.0364 13.13466748168757
ONEWEB-0157             
1 48055U 21025P   24252.55776407  .00000062  00000+0  13413-3 0  9990
2 48055  87.8855  88.8983 0001832  81.2469 278.8867 13.13470478168686
ONEWEB-0162             
1 48056U 21025Q   24252.59743948 -.00000003  00000+0 -42743-4 0  9995
2 48056  87.8852  88.8849 0001648  82.1878 277.9438 13.13468182168665
ONEWEB-0155             
1 48057U 21025R   24252.61806354  .00000306  00000+0  80242-3 0  9999
2 48057  87.8854  88.8926 0001720  90.4677 269.6649 13.13473539168804
ONEWEB-0148             
1 48059U 21025T   24252.60379077  .00000225  00000+0  58201-3 0  9997
2 48059  87.8857  88.9044 0002080  69.6884 290.4468 13.13471151168730
ONEWEB-0160             
1 48060U 21025U   24252.61966206  .00000341  00000+0  89843-3 0  9991
2 48060  87.8857  88.8976 0000728  86.9324 273.1889 13.13467947168680
ONEWEB-0163             
1 48061U 21025V   24252.60538383  .00000246  00000+0  63781-3 0  9999
2 48061  87.8855  88.8904 0001959  85.3036 274.8317 13.13469072168809
